CCSDS_OMM_VERS = 2.0
CREATION_DATE  = 
ORIGINATOR     = 

OBJECT_NAME    = ALOS (DAICHI)
OBJECT_ID      = 2006-002A
CENTER_NAME    = EARTH
REF_FRAME      = TEME
TIME_SYSTEM    = UTC
MEAN_ELEMENT_THEORY = SGP/SGP4

EPOCH          = 2025-12-17T17:37:14.152512
MEAN_MOTION    = 14.69501788
ECCENTRICITY   = .00013612
INCLINATION    = 98.1098
RA_OF_ASC_NODE = 303.1864
ARG_OF_PERICENTER = 113.5739
MEAN_ANOMALY   = 246.5610

EPHEMERIS_TYPE = 0
CLASSIFICATION_TYPE = U
NORAD_CAT_ID   = 28931
ELEMENT_SET_NO = 999
REV_AT_EPOCH   = 6144
BSTAR          = .19545051E-3
MEAN_MOTION_DOT = .111E-4
MEAN_MOTION_DDOT = 0

CCSDS_OMM_VERS = 2.0
CREATION_DATE  = 
ORIGINATOR     = 

OBJECT_NAME    = H-2A R/B
OBJECT_ID      = 2006-002B
CENTER_NAME    = EARTH
REF_FRAME      = TEME
TIME_SYSTEM    = UTC
MEAN_ELEMENT_THEORY = SGP/SGP4

EPOCH          = 2025-12-30T21:15:05.973984
MEAN_MOTION    = 15.14970439
ECCENTRICITY   = .00546821
INCLINATION    = 98.2316
RA_OF_ASC_NODE = 141.1216
ARG_OF_PERICENTER = 115.1736
MEAN_ANOMALY   = 245.5179

EPHEMERIS_TYPE = 0
CLASSIFICATION_TYPE = U
NORAD_CAT_ID   = 28932
ELEMENT_SET_NO = 999
REV_AT_EPOCH   = 8401
BSTAR          = .84397796E-3
MEAN_MOTION_DOT = .16293E-3
MEAN_MOTION_DDOT = 0

CCSDS_OMM_VERS = 2.0
CREATION_DATE  = 
ORIGINATOR     = 

OBJECT_NAME    = RESURS-DK 1
OBJECT_ID      = 2006-021A
CENTER_NAME    = EARTH
REF_FRAME      = TEME
TIME_SYSTEM    = UTC
MEAN_ELEMENT_THEORY = SGP/SGP4

EPOCH          = 2025-12-30T13:23:16.380672
MEAN_MOTION    = 15.12273228
ECCENTRICITY   = .000703
INCLINATION    = 69.9346
RA_OF_ASC_NODE = 55.7863
ARG_OF_PERICENTER = 243.6938
MEAN_ANOMALY   = 116.3507

EPHEMERIS_TYPE = 0
CLASSIFICATION_TYPE = U
NORAD_CAT_ID   = 29228
ELEMENT_SET_NO = 999
REV_AT_EPOCH   = 7707
BSTAR          = .2669E-3
MEAN_MOTION_DOT = .4525E-4
MEAN_MOTION_DDOT = 0

CCSDS_OMM_VERS = 2.0
CREATION_DATE  = 
ORIGINATOR     = 

OBJECT_NAME    = CZ-4B R/B
OBJECT_ID      = 2006-046C
CENTER_NAME    = EARTH
REF_FRAME      = TEME
TIME_SYSTEM    = UTC
MEAN_ELEMENT_THEORY = SGP/SGP4

EPOCH          = 2025-12-30T17:21:05.039136
MEAN_MOTION    = 15.16071619
ECCENTRICITY   = .00347141
INCLINATION    = 97.5719
RA_OF_ASC_NODE = 44.8127
ARG_OF_PERICENTER = 144.4191
MEAN_ANOMALY   = 215.9366

EPHEMERIS_TYPE = 0
CLASSIFICATION_TYPE = U
NORAD_CAT_ID   = 29507
ELEMENT_SET_NO = 999
REV_AT_EPOCH   = 4959
BSTAR          = .43483845E-3
MEAN_MOTION_DOT = .8431E-4
MEAN_MOTION_DDOT = 0

CCSDS_OMM_VERS = 2.0
CREATION_DATE  = 
ORIGINATOR     = 

OBJECT_NAME    = CZ-2C R/B
OBJECT_ID      = 2007-010B
CENTER_NAME    = EARTH
REF_FRAME      = TEME
TIME_SYSTEM    = UTC
MEAN_ELEMENT_THEORY = SGP/SGP4

EPOCH          = 2025-12-30T19:47:58.659072
MEAN_MOTION    = 14.20218115
ECCENTRICITY   = .00598141
INCLINATION    = 98.3976
RA_OF_ASC_NODE = 116.5659
ARG_OF_PERICENTER = 133.8132
MEAN_ANOMALY   = 226.8014

EPHEMERIS_TYPE = 0
CLASSIFICATION_TYPE = U
NORAD_CAT_ID   = 31114
ELEMENT_SET_NO = 999
REV_AT_EPOCH   = 96994
BSTAR          = .14069435E-3
MEAN_MOTION_DOT = .265E-5
MEAN_MOTION_DDOT = 0

CCSDS_OMM_VERS = 2.0
CREATION_DATE  = 
ORIGINATOR     = 

OBJECT_NAME    = COSMO-SKYMED 1
OBJECT_ID      = 2007-023A
CENTER_NAME    = EARTH
REF_FRAME      = TEME
TIME_SYSTEM    = UTC
MEAN_ELEMENT_THEORY = SGP/SGP4

EPOCH          = 2025-12-30T23:35:52.932192
MEAN_MOTION    = 14.95916710
ECCENTRICITY   = .00010531
INCLINATION    = 97.8831
RA_OF_ASC_NODE = 190.5033
ARG_OF_PERICENTER = 84.3402
MEAN_ANOMALY   = 275.7938

EPHEMERIS_TYPE = 0
CLASSIFICATION_TYPE = U
NORAD_CAT_ID   = 31598
ELEMENT_SET_NO = 999
REV_AT_EPOCH   = 463
BSTAR          = .61838244E-3
MEAN_MOTION_DOT = .6865E-4
MEAN_MOTION_DDOT = 0

CCSDS_OMM_VERS = 2.0
CREATION_DATE  = 
ORIGINATOR     = 

OBJECT_NAME    = COSMOS 2428
OBJECT_ID      = 2007-029A
CENTER_NAME    = EARTH
REF_FRAME      = TEME
TIME_SYSTEM    = UTC
MEAN_ELEMENT_THEORY = SGP/SGP4

EPOCH          = 2025-12-30T08:48:27.753696
MEAN_MOTION    = 14.12898462
ECCENTRICITY   = .00046879
INCLINATION    = 70.9374
RA_OF_ASC_NODE = 348.8688
ARG_OF_PERICENTER = 359.1578
MEAN_ANOMALY   = 0.9534

EPHEMERIS_TYPE = 0
CLASSIFICATION_TYPE = U
NORAD_CAT_ID   = 31792
ELEMENT_SET_NO = 999
REV_AT_EPOCH   = 95430
BSTAR          = .20694594E-3
MEAN_MOTION_DOT = .337E-5
MEAN_MOTION_DDOT = 0

CCSDS_OMM_VERS = 2.0
CREATION_DATE  = 
ORIGINATOR     = 

OBJECT_NAME    = SL-16 R/B
OBJECT_ID      = 2007-029B
CENTER_NAME    = EARTH
REF_FRAME      = TEME
TIME_SYSTEM    = UTC
MEAN_ELEMENT_THEORY = SGP/SGP4

EPOCH          = 2025-12-30T23:36:53.375904
MEAN_MOTION    = 14.14823220
ECCENTRICITY   = .00019771
INCLINATION    = 70.9771
RA_OF_ASC_NODE = 316.8062
ARG_OF_PERICENTER = 268.9993
MEAN_ANOMALY   = 153.0835

EPHEMERIS_TYPE = 0
CLASSIFICATION_TYPE = U
NORAD_CAT_ID   = 31793
ELEMENT_SET_NO = 999
REV_AT_EPOCH   = 95565
BSTAR          = .16230657E-3
MEAN_MOTION_DOT = .265E-5
MEAN_MOTION_DDOT = 0

CCSDS_OMM_VERS = 2.0
CREATION_DATE  = 
ORIGINATOR     = 

OBJECT_NAME    = KORONAS-FOTON
OBJECT_ID      = 2009-003A
CENTER_NAME    = EARTH
REF_FRAME      = TEME
TIME_SYSTEM    = UTC
MEAN_ELEMENT_THEORY = SGP/SGP4

EPOCH          = 2025-12-30T22:21:50.719392
MEAN_MOTION    = 15.41564000
ECCENTRICITY   = .00129753
INCLINATION    = 82.4308
RA_OF_ASC_NODE = 347.2497
ARG_OF_PERICENTER = 52.0125
MEAN_ANOMALY   = 308.2291

EPHEMERIS_TYPE = 0
CLASSIFICATION_TYPE = U
NORAD_CAT_ID   = 33504
ELEMENT_SET_NO = 999
REV_AT_EPOCH   = 93514
BSTAR          = .33772432E-3
MEAN_MOTION_DOT = .1427E-3
MEAN_MOTION_DDOT = 0

CCSDS_OMM_VERS = 2.0
CREATION_DATE  = 
ORIGINATOR     = 

OBJECT_NAME    = CZ-2C R/B
OBJECT_ID      = 2011-030B
CENTER_NAME    = EARTH
REF_FRAME      = TEME
TIME_SYSTEM    = UTC
MEAN_ELEMENT_THEORY = SGP/SGP4

EPOCH          = 2025-12-30T21:43:52.572576
MEAN_MOTION    = 14.80964089
ECCENTRICITY   = .00518635
INCLINATION    = 97.8429
RA_OF_ASC_NODE = 318.6129
ARG_OF_PERICENTER = 212.9631
MEAN_ANOMALY   = 214.8200

EPHEMERIS_TYPE = 0
CLASSIFICATION_TYPE = U
NORAD_CAT_ID   = 37731
ELEMENT_SET_NO = 999
REV_AT_EPOCH   = 77991
BSTAR          = .33895304E-3
MEAN_MOTION_DOT = .263E-4
MEAN_MOTION_DDOT = 0

CCSDS_OMM_VERS = 2.0
CREATION_DATE  = 
ORIGINATOR     = 

OBJECT_NAME    = H-2A R/B
OBJECT_ID      = 2012-025E
CENTER_NAME    = EARTH
REF_FRAME      = TEME
TIME_SYSTEM    = UTC
MEAN_ELEMENT_THEORY = SGP/SGP4

EPOCH          = 2025-12-30T20:25:15.113568
MEAN_MOTION    = 14.94577248
ECCENTRICITY   = .0044933
INCLINATION    = 98.4620
RA_OF_ASC_NODE = 321.4813
ARG_OF_PERICENTER = 175.8832
MEAN_ANOMALY   = 184.2765

EPHEMERIS_TYPE = 0
CLASSIFICATION_TYPE = U
NORAD_CAT_ID   = 38341
ELEMENT_SET_NO = 999
REV_AT_EPOCH   = 73793
BSTAR          = .49111396E-3
MEAN_MOTION_DOT = .5352E-4
MEAN_MOTION_DDOT = 0

CCSDS_OMM_VERS = 2.0
CREATION_DATE  = 
ORIGINATOR     = 

OBJECT_NAME    = SHIJIAN-16 (SJ-16)
OBJECT_ID      = 2013-057A
CENTER_NAME    = EARTH
REF_FRAME      = TEME
TIME_SYSTEM    = UTC
MEAN_ELEMENT_THEORY = SGP/SGP4

EPOCH          = 2025-12-30T23:24:03.918240
MEAN_MOTION    = 14.92059514
ECCENTRICITY   = .00180275
INCLINATION    = 74.9734
RA_OF_ASC_NODE = 315.1482
ARG_OF_PERICENTER = 277.8180
MEAN_ANOMALY   = 82.0961

EPHEMERIS_TYPE = 0
CLASSIFICATION_TYPE = U
NORAD_CAT_ID   = 39358
ELEMENT_SET_NO = 999
REV_AT_EPOCH   = 66125
BSTAR          = .37726575E-3
MEAN_MOTION_DOT = .3814E-4
MEAN_MOTION_DDOT = 0

